NORAD_CAT_ID,OBJECT_NAME,OBJECT_TYPE,EPOCH,MEAN_MOTION,ECCENTRICITY,INCLINATION,RA_OF_ASC_NODE,ARG_OF_PERICENTER,MEAN_ANOMALY,BSTAR,MEAN_MOTION_DOT,MEAN_MOTION_DDOT,TLE_LINE0,TLE_LINE1,TLE_LINE2,SEMIMAJOR_AXIS,PERIOD,APOGEE,PERIGEE,DECAYED
53265.0,STARLINK-4097,PAYLOAD,2022-09-18 22:00:00,15.40629451,0.0001367,53.2173,126.7971,55.3461,14.1665,-0.028245,-0.01072981,0.0,0 STARLINK-4097,1 53265U 22086Z   22261.91667824 -.01072981  00000-0 -28245-1 0  9997,2 53265  53.2173 126.7971 0001367  55.3461  14.1665 15.40629451  1302,6822.387,93.468,445.185,443.32,0.0
53265.0,STARLINK-4097,PAYLOAD,2022-09-19 06:00:02,15.39868125,0.0001220999999999,53.2173,125.2293,79.6461,39.2562,-0.028874,-0.01069703,0.0,0 STARLINK-4097,1 53265U 22086Z   22262.25002315 -.01069703  00000-0 -28874-1 0  9999,2 53265  53.2173 125.2293 0001221  79.6461  39.2562 15.39868125  9528,6824.636,93.515,447.334,445.668,0.0
53265.0,STARLINK-4097,PAYLOAD,2022-09-19 14:00:01,15.39108933,0.0001357,53.2175,123.6629,74.2219,93.0282,-0.029617,-0.01070017,0.0,0 STARLINK-4097,1 53265U 22086Z   22262.58334491 -.01070017  00000-0 -29617-1 0  9994,2 53265  53.2175 123.6629 0001357  74.2219  93.0282 15.39108933  1306,6826.88,93.561,449.671,447.819,0.0
53265.0,STARLINK-4097,PAYLOAD,2022-09-19 22:00:00,15.38348144,0.0001431,53.2174,122.1015,67.7936,146.9549,-0.030302,-0.01067892,0.0,0 STARLINK-4097,1 53265U 22086Z   22262.91667824 -.01067892  00000-0 -30302-1 0  9990,2 53265  53.2174 122.1015 0001431  67.7936 146.9549 15.38348144  1307,6829.130999999999,93.607,451.973,450.018,0.0
53265.0,STARLINK-4097,PAYLOAD,2022-09-20 06:00:00,15.37590944,0.0001248,53.2174,120.5391,87.0668,174.2678,-0.0311959999999999,-0.0107206,0.0,0 STARLINK-4097,1 53265U 22086Z   22263.25001157 -.01072060  00000-0 -31196-1 0  9994,2 53265  53.2174 120.5391 0001248  87.0668 174.2678 15.37590944  9670,6831.371999999999,93.653,454.09,452.385,0.0
53265.0,STARLINK-4097,PAYLOAD,2022-09-20 14:00:01,15.36828172,0.000124,53.2176,118.9782,70.3502,236.6594,-0.031772,-0.01065609,0.0,0 STARLINK-4097,1 53265U 22086Z   22263.58334491 -.01065609  00000-0 -31772-1 0  9991,2 53265  53.2176 118.9782 0001240  70.3502 236.6594 15.36828172  1309,6833.6330000000025,93.699,456.345,454.65,0.0
53265.0,STARLINK-4097,PAYLOAD,2022-09-20 22:00:01,15.36071708,0.0001358,53.2176,117.4222,53.6254,298.207,-0.032743,-0.0107111,0.0,0 STARLINK-4097,1 53265U 22086Z   22263.91668981 -.01071110  00000-0 -32743-1 0  9995,2 53265  53.2176 117.4222 0001358  53.6254 298.2070 15.36071708  1308,6835.876,93.746,458.669,456.81300000000016,0.0
53265.0,STARLINK-4097,PAYLOAD,2022-09-21 06:00:00,15.35319288,0.0001289,53.2174,115.8641,56.9025,338.7122,-0.0338829999999999,-0.01080928,0.0,0 STARLINK-4097,1 53265U 22086Z   22264.25001157 -.01080928  00000-0 -33883-1 0  9992,2 53265  53.2174 115.8641 0001289  56.9025 338.7122 15.35319288  9839,6838.109,93.792,460.856,459.093,0.0
53265.0,STARLINK-4097,PAYLOAD,2022-09-21 22:00:00,15.33808793,0.000143,53.2179,112.7576,67.0541,53.5144,-0.035953,-0.01091837,0.0,0 STARLINK-4097,1 53265U 22086Z   22264.91667824 -.01091837  00000-0 -35953-1 0  9995,2 53265  53.2179 112.7576 0001430  67.0541  53.5144 15.33808793  1303,6842.598000000001,93.884,465.441,463.485,0.0
53265.0,STARLINK-4097,PAYLOAD,2022-09-22 06:00:00,15.33032543,0.0001388,53.2175,111.2073,68.6263,93.0605,-0.036,-0.01068643,0.0,0 STARLINK-4097,1 53265U 22086Z   22265.25001157 -.01068643  00000-0 -36000-1 0  9997,2 53265  53.2175 111.2073 0001388  68.6263  93.0605 15.33032543  9980,6844.908,93.931,467.723,465.823,0.0
53265.0,STARLINK-4097,PAYLOAD,2022-09-22 14:00:01,15.322869199999998,0.0001536,53.2175,109.6558,62.3119,139.5659,-0.037485,-0.01085313,0.0,0 STARLINK-4097,1 53265U 22086Z   22265.58334491 -.01085313  00000-0 -37485-1 0  9994,2 53265  53.2175 109.6558 0001536  62.3119 139.5659 15.32286920  1307,6847.128000000002,93.977,470.045,467.941,0.0
53265.0,STARLINK-4097,PAYLOAD,2022-09-22 22:00:00,15.31492386,0.0001491,53.2178,108.1104,73.7853,167.3947,-0.03665,-0.01038892,0.0,0 STARLINK-4097,1 53265U 22086Z   22265.91667824 -.01038892  00000-0 -36650-1 0  9993,2 53265  53.2178 108.1104 0001491  73.7853 167.3947 15.31492386  1305,6849.496,94.026,472.382,470.34,0.0
53265.0,STARLINK-4097,PAYLOAD,2022-09-23 06:00:00,15.3075506,0.0001261,53.2175,106.5657,77.7895,201.7518,-0.038748,-0.01070422,0.0,0 STARLINK-4097,1 53265U 22086Z   22266.25001157 -.01070422  00000-0 -38748-1 0  9997,2 53265  53.2175 106.5657 0001261  77.7895 201.7518 15.30755060 10130,6851.695,94.071,474.424,472.696,0.0
53265.0,STARLINK-4097,PAYLOAD,2022-09-23 14:00:01,15.30053772,0.0001123,53.2173,105.0195,75.0372,241.9317,-0.042477,-0.01141242,0.0,0 STARLINK-4097,1 53265U 22086Z   22266.58334491 -.01141242  00000-0 -42477-1 0  9996,2 53265  53.2173 105.0195 0001123  75.0372 241.9317 15.30053772  1300,6853.7890000000025,94.114,476.423,474.884,0.0
53265.0,STARLINK-4097,PAYLOAD,2022-09-23 22:00:00,15.29275592,0.000123,53.2176,103.48,70.0663,283.4611,-0.042716,-0.01122074,0.0,0 STARLINK-4097,1 53265U 22086Z   22266.91667824 -.01122074  00000-0 -42716-1 0  9990,2 53265  53.2176 103.4800 0001230  70.0663 283.4611 15.29275592  1307,6856.114000000001,94.162,478.822,477.135,0.0
53265.0,STARLINK-4097,PAYLOAD,2022-09-24 06:00:00,15.284895,0.0001325,53.2173,101.939,62.2208,326.9559,-0.042321,-0.01088118,0.0,0 STARLINK-4097,1 53265U 22086Z   22267.25001157 -.01088118  00000-0 -42321-1 0  9991,2 53265  53.2173 101.9390 0001325  62.2208 326.9559 15.28489500 10291,6858.464,94.211,481.23800000000006,479.42,0.0
53265.0,STARLINK-4097,PAYLOAD,2022-09-24 14:00:01,15.27675872,0.0001284999999999,53.2171,100.3995,60.7233,3.266,-0.040161,-0.01013366,0.0,0 STARLINK-4097,1 53265U 22086Z   22267.58335648 -.01013366  00000-0 -40161-1 0  9995,2 53265  53.2171 100.3995 0001285  60.7233   3.2660 15.27675872  1307,6860.899,94.261,483.646,481.882,0.0
53265.0,STARLINK-4097,PAYLOAD,2022-09-24 22:00:00,15.2695529,0.0001479,53.2176,98.8669,55.219,42.4937,-0.043381,-0.01066072,0.0,0 STARLINK-4097,1 53265U 22086Z   22267.91667824 -.01066072  00000-0 -43381-1 0  9995,2 53265  53.2176  98.8669 0001479  55.2190  42.4937 15.26955290  1303,6863.057,94.305,485.937,483.907,0.0
53265.0,STARLINK-4097,PAYLOAD,2022-09-25 14:00:01,15.254351500000002,0.0001391,53.2178,95.7976,78.7737,83.8202,-0.045315,-0.01063511,0.0,0 STARLINK-4097,1 53265U 22086Z   22268.58334491 -.01063511  00000-0 -45315-1 0  9994,2 53265  53.2178  95.7976 0001391  78.7737  83.8202 15.25435150 10493,6867.616,94.399,490.436,488.526,0.0
53265.0,STARLINK-4097,PAYLOAD,2022-09-25 22:00:01,15.24674435,0.0001496999999999,53.2176,94.2682,65.1387,128.5892,-0.046276,-0.01061595,0.0,0 STARLINK-4097,1 53265U 22086Z   22268.91668981 -.01061595  00000-0 -46276-1 0  9992,2 53265  53.2176  94.2682 0001497  65.1387 128.5892 15.24674435  1309,6869.9,94.446,492.794,490.737,0.0
53265.0,STARLINK-4097,PAYLOAD,2022-09-26 10:00:00,15.23535102,0.0001258,53.2173,91.9727,65.503,353.0581,-0.047913,-0.01062089,0.0,0 STARLINK-4097,1 53265U 22086Z   22269.41667824 -.01062089  00000-0 -47913-1 0  9991,2 53265  53.2173  91.9727 0001258  65.5030 353.0581 15.23535102 10625,6873.325,94.517,496.054,494.325,0.0
53265.0,STARLINK-4097,PAYLOAD,2022-09-26 14:00:01,15.23205353,0.0001385,53.217,91.2078,76.6343,176.4099,-0.051609,-0.01141616,0.0,0 STARLINK-4097,1 53265U 22086Z   22269.58334491 -.01141616  00000-0 -51609-1 0  9991,2 53265  53.2170  91.2078 0001385  76.6343 176.4099 15.23205353  1303,6874.316999999999,94.537,497.134,495.23,0.0
53265.0,STARLINK-4097,PAYLOAD,2022-09-26 22:00:00,15.22411812,0.0001351999999999,53.2173,89.6841,74.5841,206.8095,-0.050547,-0.01081772,0.0,0 STARLINK-4097,1 53265U 22086Z   22269.91667824 -.01081772  00000-0 -50547-1 0  9993,2 53265  53.2173  89.6841 0001352  74.5841 206.8095 15.22411812  1301,6876.705,94.587,499.5,497.641,0.0
53265.0,STARLINK-4097,PAYLOAD,2022-09-27 06:00:00,15.21642026,0.0001269,53.2174,88.1593,72.9276,235.8933,-0.051121,-0.01070374,0.0,0 STARLINK-4097,1 53265U 22086Z   22270.25001157 -.01070374  00000-0 -51121-1 0  9998,2 53265  53.2174  88.1593 0001269  72.9276 235.8933 15.21642026 10755,6879.024,94.635,501.762,500.016,0.0
53265.0,STARLINK-4097,PAYLOAD,2022-09-27 14:00:01,15.20876135,0.0001215,53.2172,86.6358,76.3349,258.9989,-0.051908,-0.01063186,0.0,0 STARLINK-4097,1 53265U 22086Z   22270.58334491 -.01063186  00000-0 -51908-1 0  9990,2 53265  53.2172  86.6358 0001215  76.3349 258.9989 15.20876135  1302,6881.334,94.682,504.035,502.362,0.0
53265.0,STARLINK-4097,PAYLOAD,2022-09-27 22:00:01,15.20096106,0.0001184,53.2172,85.1173,71.8493,289.1488,-0.051351,-0.01030767,0.0,0 STARLINK-4097,1 53265U 22086Z   22270.91668981 -.01030767  00000-0 -51351-1 0  9992,2 53265  53.2172  85.1173 0001184  71.8493 289.1488 15.20096106  1319,6883.687,94.731,506.367,504.737,0.0
53265.0,STARLINK-4097,PAYLOAD,2022-09-28 06:00:00,15.193599,0.0001272,53.2173,83.5981,66.3838,319.2238,-0.054382,-0.01065226,0.0,0 STARLINK-4097,1 53265U 22086Z   22271.25001157 -.01065226  00000-0 -54382-1 0  9991,2 53265  53.2173  83.5981 0001272  66.3838 319.2238 15.19359900 10904,6885.911,94.777,508.652,506.9,0.0
53265.0,STARLINK-4097,PAYLOAD,2022-09-28 14:00:01,15.18600582,0.0001286,53.2177,82.0822,65.9204,343.4558,-0.055559,-0.01078036,0.0,0 STARLINK-4097,1 53265U 22086Z   22271.58334491 -.01078036  00000-0 -55559-1 0  9997,2 53265  53.2177  82.0822 0001286  65.9204 343.4558 15.18600582  1305,6888.206,94.824,510.957,509.185,0.0
53265.0,STARLINK-4097,PAYLOAD,2022-09-28 22:00:00,15.17854209,0.0001329,53.2172,80.5668,68.7187,3.5077,-0.057751,-0.01095229,0.0,0 STARLINK-4097,1 53265U 22086Z   22271.91667824 -.01095229  00000-0 -57751-1 0  9992,2 53265  53.2172  80.5668 0001329  68.7187   3.5077 15.17854209  1306,6890.464,94.871,513.245,511.413,0.0
